2024-043AX              
1 59143U 24043AX  24073.53422797  .00019847  00000+0  98675-3 0  9996
2 59143  97.4690 198.7106 0011735 245.0464 114.9551 15.17614037  1296
2024-043AY              
1 59144U 24043AY  24073.46776024  .00026836  00000+0  13262-2 0  9998
2 59144  97.4643 198.6435 0011128 247.5087 112.4969 15.17767564  1282
2024-043AZ              
1 59145U 24043AZ  24073.53334338  .00022147  00000+0  10957-2 0  9994
2 59145  97.4666 198.7102 0010994 242.7551 117.2563 15.17770303  1292
2024-043BA              
1 59146U 24043BA  24073.53347657  .00010080  00000+0  50298-3 0  9999
2 59146  97.4572 198.7035 0009455 244.9550 115.0703 15.17670251  1290
2024-043BB              
1 59147U 24043BB  24073.53281322  .00009959  00000+0  49524-3 0  9999
2 59147  97.4590 198.7055 0009614 241.2709 118.7559 15.17792388  1291
2024-043BC              
1 59148U 24043BC  24073.53266665  .00007278  00000+0  36256-3 0  9993
2 59148  97.4648 198.7098 0010361 238.6377 121.3843 15.17822044  1294
STARLINK-31312          
1 59152U 24044A   24075.25001157 -.00287789  34821-4 -86136-3 0  9997
2 59152  43.0033 235.8642 0003678 300.3214 302.8534 15.91219313  2781
STARLINK-31308          
1 59153U 24044B   24075.16667824 -.01229134  00000+0 -74249-2 0  9996
2 59153  43.0035 236.6173 0001472 273.5963 117.9570 15.79439174  2818
STARLINK-31270          
1 59154U 24044C   24075.25001157 -.01097807  00000+0 -79192-2 0  9990
2 59154  43.0028 236.2666 0001350 276.9496 165.9461 15.75201028  2832
STARLINK-31341          
1 59155U 24044D   24075.25001157 -.01109038  00000+0 -80149-2 0  9995
2 59155  43.0027 236.2612 0001702 277.6741 167.2789 15.75182677  2785
STARLINK-31338          
1 59156U 24044E   24075.25001157 -.01117801  00000+0 -80931-2 0  9992
2 59156  43.0025 236.2559 0001546 264.1368 182.8710 15.75163477  2500
STARLINK-31334          
1 59157U 24044F   24075.25001157 -.01124184  00000+0 -81442-2 0  9993
2 59157  43.0023 236.2508 0001465 276.3384 172.6749 15.75165941  2615
STARLINK-31297          
1 59158U 24044G   24075.16667824 -.01162120  00000+0 -83769-2 0  9999
2 59158  43.0026 236.7516 0001523 266.0050  71.9081 15.75369549  2816
STARLINK-31182          
1 59159U 24044H   24075.16667824 -.01167694  00000+0 -84288-2 0  9998
2 59159  43.0026 236.7459 0001842 264.9787  74.9969 15.75348032  2813
STARLINK-31327          
1 59160U 24044J   24075.16667824 -.01178046  00000+0 -85142-2 0  9993
2 59160  43.0026 236.7410 0001583 264.7836  77.2113 15.75347418  2811
STARLINK-31256          
1 59161U 24044K   24075.16667824 -.01183151  00000+0 -85597-2 0  9991
2 59161  43.0025 236.7361 0001746 263.0329  81.0015 15.75335201  2817
STARLINK-31272          
1 59162U 24044L   24075.25001157 -.01162290  00000+0 -84895-2 0  9994
2 59162  43.0024 236.2250 0001488 275.8326 183.4239 15.75071639  2772
STARLINK-31278          
1 59163U 24044M   24075.16667824 -.01204345  00000+0 -87461-2 0  9994
2 59163  43.0026 236.7258 0001421 271.5273  76.6081 15.75304430  2764
STARLINK-31309          
1 59164U 24044N   24075.16667824 -.01210942  00000+0 -87992-2 0  9994
2 59164  43.0024 236.7204 0001565 269.0403  81.1058 15.75305528  2821
STARLINK-31325          
1 59165U 24044P   24075.16667824 -.01242273  00000+0 -88907-2 0  9994
2 59165  43.0021 236.7151 0001468 271.1437  81.0708 15.75279973  2558
STARLINK-31342          
1 59166U 24044Q   24075.16667824 -.01249528  00000+0 -89524-2 0  9991
2 59166  43.0022 236.7097 0001586 268.7484  85.5031 15.75268614  2811
STARLINK-31298          
1 59167U 24044R   24075.25001157 -.01196737  00000+0 -88030-2 0  9997
2 59167  43.0017 236.1993 0001298 272.5288 196.9067 15.74997174  2567
STARLINK-31322          
1 59168U 24044S   24075.16667824 -.01266529  00000+0 -91041-2 0  9990
2 59168  43.0021 236.6995 0001458 266.7888  91.5654 15.75229524  2828
STARLINK-31329          
1 59169U 24044T   24075.16667824 -.01273077  00000+0 -91594-2 0  9990
2 59169  43.0022 236.6943 0001584 267.5862  92.7951 15.75221108  2603
STARLINK-31340          
1 59170U 24044U   24075.16667824 -.01281308  00000+0 -92369-2 0  9999
2 59170  43.0023 236.6892 0001485 271.5019  90.9425 15.75193796  2661
STARLINK-31344          
1 59171U 24044V   24075.16667824 -.01292170  00000+0 -93333-2 0  9991
2 59171  43.0022 236.6840 0001500 271.4470  93.0525 15.75171611  2816
STARLINK-31348          
1 59172U 24044W   24075.16667824 -.01298658  00000+0 -93828-2 0  9998
2 59172  43.0021 236.6793 0001552 270.7905  95.7071 15.75177826  2555
STARLINK-31289          
1 59173U 24044X   24075.16667824 -.01299433  00000+0 -94033-2 0  9990
2 59173  43.0023 236.6739 0001665 271.0485  97.5195 15.75142333  2822
STARLINK-31283          
1 59174U 24044Y   24075.16667824 -.01306143  00000+0 -94612-2 0  9991
2 59174  43.0023 236.6689 0001510 269.4282 101.1607 15.75135095  2829
EXO-0                   
1 59175U 23174DK  24074.87746038  .00007841  00000+0  42124-3 0  9999
2 59175  97.4640 150.7113 0013195 188.3388 171.7627 15.15103576 19392
